{"type": "FeatureCollection", "features": [ {"type": "Feature", "properties": {"norad_id": 34963, "name": "COSMOS 2251 DEB", "group": "cosmos-2251-debris", "lat": -51.76803925264215, "lon": -143.12003917087992, "alt_km": 701.33000317194, "timestamp": "2025-12-27T04:40:45.900546+00:00", "meta": {"OBJECT_NAME": "COSMOS 2251 DEB", "OBJECT_ID": "1993-036AES", "EPOCH": "2025-12-24T11:04:35.037696", "MEAN_MOTION": 14.51189706, "ECCENTRICITY": 0.00420275, "INCLINATION": 74.171, "RA_OF_ASC_NODE": 20.8715, "ARG_OF_PERICENTER": 215.0245, "MEAN_ANOMALY": 144.8152, "EPHEMERIS_TYPE": 0, "CLASSIFICATION_TYPE": "U", "NORAD_CAT_ID": 34963, "ELEMENT_SET_NO": 999, "REV_AT_EPOCH": 86971, "BSTAR": 0.00126389, "MEAN_MOTION_DOT": 5.053e-05, "MEAN_MOTION_DDOT": 0}, "tle": {"line1": "1 34963U 93036AES 25358.46151664  .00005053  00000+0  12639-2 0  9997", "line2": "2 34963  74.1710  20.8715 0042027 215.0245 144.8152 14.51189706869712"}}, "geometry": {"type": "Point", "coordinates": [-143.12003917087992, -51.76803925264215]}}, {"type": "Feature", "properties": {"norad_id": 34964, "name": "COSMOS 2251 DEB", "group": "cosmos-2251-debris", "lat": 32.12027727738273, "lon": 132.28857810441576, "alt_km": 757.1048785766679, "timestamp": "2025-12-27T04:40:45.900556+00:00", "meta": {"OBJECT_NAME": "COSMOS 2251 DEB", "OBJECT_ID": "1993-036AET", "EPOCH": "2025-12-18T07:25:04.519776", "MEAN_MOTION": 14.00628567, "ECCENTRICITY": 0.02123167, "INCLINATION": 73.9712, "RA_OF_ASC_NODE": 338.1457, "ARG_OF_PERICENTER": 195.4091, "MEAN_ANOMALY": 164.0515, "EPHEMERIS_TYPE": 0, "CLASSIFICATION_TYPE": "U", "NORAD_CAT_ID": 34964, "ELEMENT_SET_NO": 999, "REV_AT_EPOCH": 84556, "BSTAR": 0.00089791859, "MEAN_MOTION_DOT": 1.6e-05, "MEAN_MOTION_DDOT": 0}, "tle": {"line1": "1 34964U 93036AET 25352.30908009  .00001600  00000+0  89792-3 0  9997", "line2": "2 34964  73.9712 338.1457 0212316 195.4091 164.0515 14.00628567845561"}}, "geometry": {"type": "Point", "coordinates": [132.28857810441576, 32.12027727738273]}}, {"type": "Feature", "properties": {"norad_id": 34965, "name": "COSMOS 2251 DEB", "group": "cosmos-2251-debris", "lat": -16.926190755190305, "lon": -73.60160657442162, "alt_km": 717.9353369426735, "timestamp": "2025-12-27T04:40:45.900566+00:00", "meta": {"OBJECT_NAME": "COSMOS 2251 DEB", "OBJECT_ID": "1993-036AEU", "EPOCH": "2025-12-26T16:10:04.788192", "MEAN_MOTION": 14.48742435, "ECCENTRICITY": 0.00263543, "INCLINATION": 74.0519, "RA_OF_ASC_NODE": 102.3817, "ARG_OF_PERICENTER": 227.8431, "MEAN_ANOMALY": 132.049, "EPHEMERIS_TYPE": 0, "CLASSIFICATION_TYPE": "U", "NORAD_CAT_ID": 34965, "ELEMENT_SET_NO": 999, "REV_AT_EPOCH": 87315, "BSTAR": 0.00037372513, "MEAN_MOTION_DOT": 1.388e-05, "MEAN_MOTION_DDOT": 0}, "tle": {"line1": "1 34965U 93036AEU 25360.67366653  .00001388  00000+0  37373-3 0  9991", "line2": "2 34965  74.0519 102.3817 0026354 227.8431 132.0490 14.48742435873159"}}, "geometry": {"type": "Point", "coordinates": [-73.60160657442162, -16.926190755190305]}}, {"type": "Feature", "properties": {"norad_id": 34967, "name": "COSMOS 2251 DEB", "group": "cosmos-2251-debris", "lat": -54.61486290758199, "lon": 70.73327221542527, "alt_km": 769.2623916574366, "timestamp": "2025-12-27T04:40:45.900576+00:00", "meta": {"OBJECT_NAME": "COSMOS 2251 DEB", "OBJECT_ID": "1993-036AEW", "EPOCH": "2025-12-24T22:23:05.722368", "MEAN_MOTION": 14.44316705, "ECCENTRICITY": 0.0038667, "INCLINATION": 73.9924, "RA_OF_ASC_NODE": 231.1127, "ARG_OF_PERICENTER": 14.6551, "MEAN_ANOMALY": 345.5717, "EPHEMERIS_TYPE": 0, "CLASSIFICATION_TYPE": "U", "NORAD_CAT_ID": 34967, "ELEMENT_SET_NO": 999, "REV_AT_EPOCH": 65133, "BSTAR": 0.00061268, "MEAN_MOTION_DOT": 2.1e-05, "MEAN_MOTION_DDOT": 0}, "tle": {"line1": "1 34967U 93036AEW 25358.93270512  .00002100  00000+0  61268-3 0  9990", "line2": "2 34967  73.9924 231.1127 0038667  14.6551 345.5717 14.44316705651339"}}, "geometry": {"type": "Point", "coordinates": [70.73327221542527, -54.61486290758199]}}, {"type": "Feature", "properties": {"norad_id": 34968, "name": "COSMOS 2251 DEB", "group": "cosmos-2251-debris", "lat": 19.240612845382316, "lon": 33.779742569615735, "alt_km": 756.487682962179, "timestamp": "2025-12-27T04:40:45.900586+00:00", "meta": {"OBJECT_NAME": "COSMOS 2251 DEB", "OBJECT_ID": "1993-036AEX", "EPOCH": "2025-12-26T21:22:00.378624", "MEAN_MOTION": 14.59429118, "ECCENTRICITY": 0.00872947, "INCLINATION": 74.0371, "RA_OF_ASC_NODE": 220.0941, "ARG_OF_PERICENTER": 336.9625, "MEAN_ANOMALY": 22.7634, "EPHEMERIS_TYPE": 0, "CLASSIFICATION_TYPE": "U", "NORAD_CAT_ID": 34968, "ELEMENT_SET_NO": 999, "REV_AT_EPOCH": 88684, "BSTAR": 0.00015767702, "MEAN_MOTION_DOT": 7.55e-06, "MEAN_MOTION_DDOT": 0}, "tle": {"line1": "1 34968U 93036AEX 25360.89028216  .00000755  00000+0  15768-3 0  9999", "line2": "2 34968  74.0371 220.0941 0087294 336.9625  22.7634 14.59429118886848"}}, "geometry": {"type": "Point", "coordinates": [33.779742569615735, 19.240612845382316]}}, {"type": "Feature", "properties": {"norad_id": 34969, "name": "COSMOS 2251 DEB", "group": "cosmos-2251-debris", "lat": -71.55151041109906, "lon": -62.513111871947885, "alt_km": 837.6397573153708, "timestamp": "2025-12-27T04:40:45.900596+00:00", "meta": {"OBJECT_NAME": "COSMOS 2251 DEB", "OBJECT_ID": "1993-036AEY", "EPOCH": "2025-12-26T17:19:34.272480", "MEAN_MOTION": 14.3227655, "ECCENTRICITY": 0.007302, "INCLINATION": 74.0139, "RA_OF_ASC_NODE": 357.5919, "ARG_OF_PERICENTER": 127.2117, "MEAN_ANOMALY": 233.5728, "EPHEMERIS_TYPE": 0, "CLASSIFICATION_TYPE": "U", "NORAD_CAT_ID": 34969, "ELEMENT_SET_NO": 999, "REV_AT_EPOCH": 65337, "BSTAR": 0.00027741107, "MEAN_MOTION_DOT": 7.45e-06, "MEAN_MOTION_DDOT": 0}, "tle": {"line1": "1 34969U 93036AEY 25360.72192445  .00000745  00000+0  27741-3 0  9991", "line2": "2 34969  74.0139 357.5919 0073020 127.2117 233.5728 14.32276550653378"}}, "geometry": {"type": "Point", "coordinates": [-62.513111871947885, -71.55151041109906]}}, {"type": "Feature", "properties": {"norad_id": 34971, "name": "COSMOS 2251 DEB", "group": "cosmos-2251-debris", "lat": 24.13146922103151, "lon": -95.08310997480994, "alt_km": 709.4690788611333, "timestamp": "2025-12-27T04:40:45.900606+00:00", "meta": {"OBJECT_NAME": "COSMOS 2251 DEB", "OBJECT_ID": "1993-036AFA", "EPOCH": "2025-12-26T23:41:25.656000", "MEAN_MOTION": 14.55655373, "ECCENTRICITY": 0.00691715, "INCLINATION": 73.9782, "RA_OF_ASC_NODE": 257.9161, "ARG_OF_PERICENTER": 119.8318, "MEAN_ANOMALY": 257.3481, "EPHEMERIS_TYPE": 0, "CLASSIFICATION_TYPE": "U", "NORAD_CAT_ID": 34971, "ELEMENT_SET_NO": 999, "REV_AT_EPOCH": 66380, "BSTAR": 0.00018756532, "MEAN_MOTION_DOT": 8.16e-06, "MEAN_MOTION_DDOT": 0}, "tle": {"line1": "1 34971U 93036AFA 25360.98710250  .00000816  00000+0  18757-3 0  9998", "line2": "2 34971  73.9782 257.9161 0069171 119.8318 257.3481 14.55655373663805"}}, "geometry": {"type": "Point", "coordinates": [-95.08310997480994, 24.13146922103151]}}, {"type": "Feature", "properties": {"norad_id": 34972, "name": "COSMOS 2251 DEB", "group": "cosmos-2251-debris", "lat": 72.30156255596214, "lon": 137.46810416508816, "alt_km": 639.8782037797891, "timestamp": "2025-12-27T04:40:45.900643+00:00", "meta": {"OBJECT_NAME": "COSMOS 2251 DEB", "OBJECT_ID": "1993-036AFB", "EPOCH": "2025-12-26T12:37:34.370400", "MEAN_MOTION": 14.7310501, "ECCENTRICITY": 0.0032419, "INCLINATION": 73.9877, "RA_OF_ASC_NODE": 22.9204, "ARG_OF_PERICENTER": 179.2872, "MEAN_ANOMALY": 332.9317, "EPHEMERIS_TYPE": 0, "CLASSIFICATION_TYPE": "U", "NORAD_CAT_ID": 34972, "ELEMENT_SET_NO": 999, "REV_AT_EPOCH": 87853, "BSTAR": 0.0013355, "MEAN_MOTION_DOT": 8.649e-05, "MEAN_MOTION_DDOT": 0}, "tle": {"line1": "1 34972U 93036AFB 25360.52609225  .00008649  00000+0  13355-2 0  9998", "line2": "2 34972  73.9877  22.9204 0032419 179.2872 332.9317 14.73105010878533"}}, "geometry": {"type": "Point", "coordinates": [137.46810416508816, 72.30156255596214]}}, {"type": "Feature", "properties": {"norad_id": 34976, "name": "COSMOS 2251 DEB", "group": "cosmos-2251-debris", "lat": 24.442819223729483, "lon": -74.57708051644647, "alt_km": 623.4560748277627, "timestamp": "2025-12-27T04:40:45.900653+00:00", "meta": {"OBJECT_NAME": "COSMOS 2251 DEB", "OBJECT_ID": "1993-036AFF", "EPOCH": "2025-12-26T18:57:11.946240", "MEAN_MOTION": 14.76873799, "ECCENTRICITY": 0.00477313, "INCLINATION": 74.058, "RA_OF_ASC_NODE": 278.7508, "ARG_OF_PERICENTER": 322.3783, "MEAN_ANOMALY": 68.9832, "EPHEMERIS_TYPE": 0, "CLASSIFICATION_TYPE": "U", "NORAD_CAT_ID": 34976, "ELEMENT_SET_NO": 999, "REV_AT_EPOCH": 88481, "BSTAR": 0.0016536947, "MEAN_MOTION_DOT": 0.00011829, "MEAN_MOTION_DDOT": 0}, "tle": {"line1": "1 34976U 93036AFF 25360.78972160  .00011829  00000+0  16537-2 0  9990", "line2": "2 34976  74.0580 278.7508 0047731 322.3783  68.9832 14.76873799884818"}}, "geometry": {"type": "Point", "coordinates": [-74.57708051644647, 24.442819223729483]}}, {"type": "Feature", "properties": {"norad_id": 34979, "name": "COSMOS 2251 DEB", "group": "cosmos-2251-debris", "lat": -34.73394469011382, "lon": 70.26546003097985, "alt_km": 640.8955247731601, "timestamp": "2025-12-27T04:40:45.900664+00:00", "meta": {"OBJECT_NAME": "COSMOS 2251 DEB", "OBJECT_ID": "1993-036AFJ", "EPOCH": "2025-12-26T01:44:12.448320", "MEAN_MOTION": 14.79574346, "ECCENTRICITY": 0.00491742, "INCLINATION": 74.0387, "RA_OF_ASC_NODE": 241.0288, "ARG_OF_PERICENTER": 316.3165, "MEAN_ANOMALY": 43.4123, "EPHEMERIS_TYPE": 0, "CLASSIFICATION_TYPE": "U", "NORAD_CAT_ID": 34979, "ELEMENT_SET_NO": 999, "REV_AT_EPOCH": 88417, "BSTAR": 0.0010039197, "MEAN_MOTION_DOT": 7.647e-05, "MEAN_MOTION_DDOT": 0}, "tle": {"line1": "1 34979U 93036AFJ 25360.07236630  .00007647  00000+0  10039-2 0  9994", "line2": "2 34979  74.0387 241.0288 0049174 316.3165  43.4123 14.79574346884173"}}, "geometry": {"type": "Point", "coordinates": [70.26546003097985, -34.73394469011382]}}]}